OBJECT_NAME,OBJECT_ID,EPOCH,MEAN_MOTION,ECCENTRICITY,INCLINATION,RA_OF_ASC_NODE,ARG_OF_PERICENTER,MEAN_ANOMALY,EPHEMERIS_TYPE,CLASSIFICATION_TYPE,NORAD_CAT_ID,ELEMENT_SET_NO,REV_AT_EPOCH,BSTAR,MEAN_MOTION_DOT,MEAN_MOTION_DDOT
STARLINK-34104,2025-110G,2026-07-16T23:18:44.104320,15.34396448,.000207,53.1590,144.3130,91.2293,268.8947,0,U,64102,999,6570,.34384E-3,.11257E-3,0
STARLINK-34179,2025-110H,2026-07-16T20:28:44.225760,15.30203162,.0001607,53.1601,147.1241,67.0232,293.0938,0,U,64103,999,6565,.42557E-3,.12267E-3,0
STARLINK-34176,2025-110J,2026-07-16T23:27:42.829056,15.30220781,.0001066,53.1595,146.4749,92.6216,267.4907,0,U,64104,999,6567,.51441E-3,.14917E-3,0
STARLINK-33949,2025-110K,2026-07-16T07:24:45.199008,15.31737032,.0000985,53.1573,148.7071,109.1321,250.9787,0,U,64105,999,6558,.25753E-3,.7644E-4,0
STARLINK-33970,2025-110L,2026-07-16T20:20:14.244576,15.34409946,.0002057,53.1604,144.9627,81.8945,278.2291,0,U,64106,999,6568,.49694E-3,.16456E-3,0
STARLINK-33912,2025-110M,2026-07-16T19:43:01.824960,15.31706813,.0001526,53.1590,146.2174,100.0078,260.1095,0,U,64107,999,6566,.30462E-3,.9101E-4,0
STARLINK-34156,2025-110N,2026-07-16T13:19:59.088000,15.31705409,.0001584,53.1592,147.3983,107.3202,252.7973,0,U,64108,999,6562,.24733E-3,.7318E-4,0
STARLINK-34124,2025-110P,2026-07-16T06:57:25.480800,15.31706870,.0001363,53.1578,148.5843,91.0650,269.0508,0,U,64109,999,6558,.26102E-3,.7745E-4,0
STARLINK-34145,2025-110Q,2026-07-16T22:30:15.145920,15.34400701,.0001404,53.1580,144.0970,94.9642,265.1521,0,U,64110,999,6570,.28148E-3,.9146E-4,0
STARLINK-34148,2025-110R,2026-07-16T06:43:58.724256,15.31716150,.0001318,53.1577,148.5267,111.5838,248.5304,0,U,64111,999,6558,.40477E-3,.12222E-3,0
STARLINK-34136,2025-110S,2026-07-16T06:50:42.100800,15.31707470,.0001271,53.1574,148.5565,89.1765,270.9382,0,U,64112,999,6558,.22001E-3,.647E-4,0
STARLINK-33839,2025-110T,2026-07-16T13:20:28.756032,15.31717052,.0001668,53.1583,147.3978,105.5512,254.5673,0,U,64113,999,6562,.28327E-3,.844E-4,0
STARLINK-34064,2025-110U,2026-07-16T23:11:07.120032,15.31726934,.0002291,53.1589,145.6944,83.7864,276.3398,0,U,64114,999,6568,.29374E-3,.8768E-4,0
STARLINK-34067,2025-110V,2026-07-16T06:00:05.248800,15.36008829,.0002572,53.1609,147.6423,87.4129,272.7169,0,U,64115,999,6559,.91093E-3,.32157E-3,0
STARLINK-34080,2025-110W,2026-07-16T22:10:08.742720,15.31703181,.0001496,53.1599,145.4281,101.2128,258.9041,0,U,64116,999,6567,.31821E-3,.9523E-4,0
STARLINK-34122,2025-110X,2026-07-16T06:37:15.360672,15.31708340,.000135,53.1585,148.4943,95.6099,264.5056,0,U,64117,999,6557,.18704E-3,.5445E-4,0
STARLINK-33964,2025-110Y,2026-07-16T07:18:03.984192,15.31704259,.0001278,53.1577,148.6712,98.1044,262.0102,0,U,64118,999,6558,.17895E-3,.5193E-4,0
STARLINK-34160,2025-110Z,2026-07-17T00:00:02.000160,15.34405059,.0001332,53.1576,140.2573,94.1300,244.7232,0,U,64119,999,583,-.75029E-3,-.25645E-3,0
STARLINK-34151,2025-110AA,2026-07-16T13:46:21.426240,15.31306394,.0002595,53.1600,148.2217,70.0999,290.0282,0,U,64120,999,6561,.29751E-3,.8766E-4,0
STARLINK-34189,2025-110AB,2026-07-16T03:11:04.729632,15.30192663,.00014582,53.1608,150.4389,61.3213,298.7935,0,U,64121,999,6554,-.6061324E-3,-.18263E-3,0
STARLINK-33991,2025-110AC,2026-07-16T06:24:17.790912,15.31706401,.0001218,53.1591,148.4367,92.1590,267.9551,0,U,64122,999,6557,.26246E-3,.7789E-4,0
STARLINK-11727 [DTC],2025-111A,2026-07-17T04:43:12.209376,15.70928870,.0000237,42.9971,273.5464,113.9597,246.1296,0,U,64123,999,6700,.10409E-2,.135831E-2,0
STARLINK-11724 [DTC],2025-111B,2026-07-16T14:13:17.780160,15.70832770,.0001548,42.9996,276.7379,286.6956,73.3741,0,U,64124,999,6691,.88904E-3,.115185E-2,0
STARLINK-11725 [DTC],2025-111C,2026-07-16T14:36:13.922208,15.70855716,.0001801,43.0005,276.8655,285.5003,74.5666,0,U,64125,999,6691,.96601E-3,.125475E-2,0
STARLINK-11717 [DTC],2025-111D,2026-07-16T14:43:52.498848,15.70850339,.0002816,43.0021,276.9111,290.1998,69.8567,0,U,64126,999,6686,.8409E-3,.108933E-2,0
STARLINK-11721 [DTC],2025-111E,2026-07-16T13:50:21.601824,15.70831061,.0001123,42.9992,276.6092,272.5084,87.5655,0,U,64127,999,6691,.88808E-3,.115049E-2,0
STARLINK-11722 [DTC],2025-111F,2026-07-16T14:20:56.550336,15.70843334,.00015,42.9994,276.7792,264.1746,95.8951,0,U,64128,999,6686,.94086E-3,.122081E-2,0
STARLINK-11679 [DTC],2025-111G,2026-07-17T05:13:35.791104,15.70872583,.0001359,42.9983,272.8172,277.2612,82.8101,0,U,64129,999,6701,.38037E-3,.48712E-3,0
STARLINK-11735 [DTC],2025-111H,2026-07-16T16:00:08.779392,15.70874368,.000139,42.9991,276.4387,266.7933,93.2776,0,U,64130,999,6677,.11877E-2,.155046E-2,0
STARLINK-11720 [DTC],2025-111J,2026-07-16T14:05:39.162048,15.70825304,.0001158,42.9996,276.6928,300.0303,60.0450,0,U,64131,999,6686,.88869E-3,.115101E-2,0
STARLINK-11718 [DTC],2025-111K,2026-07-17T04:44:30.672672,15.70933404,.0000225,42.9969,273.5475,201.9804,158.1054,0,U,64132,999,6705,.10835E-2,.141527E-2,0
STARLINK-11716 [DTC],2025-111L,2026-07-16T05:42:09.470304,15.70938345,.0001197,43.0000,279.2481,144.1806,215.9142,0,U,64133,999,6690,.77508E-3,.100632E-2,0
STARLINK-11714 [DTC],2025-111M,2026-07-16T13:42:42.613056,15.70832179,.0001963,42.9991,276.5616,282.9933,77.0715,0,U,64134,999,6691,.79687E-3,.103045E-2,0
STARLINK-11712 [DTC],2025-111N,2026-07-17T04:50:50.850816,15.70869832,.0001407,42.9989,273.5836,269.3969,90.6738,0,U,64135,999,6700,.43573E-3,.55909E-3,0
STARLINK-34254,2025-111P,2026-07-17T00:03:04.135680,15.27587852,.0001213,43.0024,67.2786,324.0872,35.9898,0,U,64136,999,6524,.52694E-3,.1427E-3,0
STARLINK-34230,2025-111Q,2026-07-16T22:54:56.729664,16.18124504,.0021464,42.9715,12.2860,305.4676,54.4205,0,U,64137,999,6586,.40313E-2,.7415635E-1,.89732E-5
STARLINK-34129,2025-111R,2026-07-17T01:00:26.170848,15.27629291,.0001362,42.9987,67.5713,249.0788,110.9918,0,U,64138,999,6529,.99589E-3,.27285E-3,0
STARLINK-34212,2025-111S,2026-07-17T00:17:52.192032,15.27580515,.0001098,43.0019,67.3509,276.3575,83.7152,0,U,64139,999,6524,.23319E-3,.616E-4,0
STARLINK-34149,2025-111T,2026-07-17T00:32:40.582752,15.27578550,.0000803,43.0041,67.4233,261.7740,98.3021,0,U,64140,999,6524,.29997E-3,.8001E-4,0
STARLINK-34054,2025-111U,2026-07-17T00:28:58.184832,15.27589690,.0001191,43.0039,67.4042,267.3573,92.7142,0,U,64141,999,6524,.29785E-3,.7945E-4,0
STARLINK-34195,2025-111V,2026-07-16T22:38:09.449952,15.27586124,.0001451,43.0014,67.6880,276.0645,84.0042,0,U,64142,999,6523,.38347E-3,.10307E-3,0
STARLINK-34133,2025-111W,2026-07-17T00:06:46.510272,15.27573850,.0000387,42.9989,67.2911,28.1192,331.9681,0,U,64143,999,6524,.16072E-3,.4163E-4,0
STARLINK-34181,2025-111X,2026-07-17T00:38:13.298784,15.27590718,.0001386,43.0030,67.4550,279.4872,80.5823,0,U,64144,999,6524,.30476E-3,.8136E-4,0
STARLINK-34186,2025-111Y,2026-07-16T23:17:01.157856,15.27581510,.0001577,43.0021,67.8893,243.2947,116.7743,0,U,64145,999,6523,.32472E-3,.8684E-4,0
STARLINK-34314,2025-112A,2026-07-17T03:06:50.738688,15.05661270,.0001839,97.2837,246.9262,109.6951,250.4475,0,U,64146,999,6278,.18155E-3,.2565E-4,0
STARLINK-33926,2025-112B,2026-07-17T02:30:58.689216,15.05658884,.0002345,97.2821,246.9613,130.2637,229.8796,0,U,64147,999,6278,.2067E-3,.2928E-4,0
STARLINK-34213,2025-112C,2026-07-17T01:43:06.208032,15.05659848,.000155,97.2846,246.8530,127.8459,232.2910,0,U,64148,999,6277,.14238E-3,.1999E-4,0
STARLINK-33924,2025-112D,2026-07-16T16:20:52.033056,15.05658719,.0001303,97.2828,246.4646,104.6978,255.4394,0,U,64149,999,6271,.11118E-3,.1549E-4,0
STARLINK-34209,2025-112E,2026-07-16T16:44:48.295680,15.05661312,.0002602,97.2818,246.5937,107.5930,252.5582,0,U,64150,999,6272,.18679E-3,.2641E-4,0
STARLINK-34338,2025-112F,2026-07-17T02:07:02.208000,15.05666368,.000164,97.2828,246.9833,99.9996,260.1417,0,U,64151,999,6278,-.26357E-3,-.3859E-4,0
STARLINK-34348,2025-112G,2026-07-16T17:20:41.057088,15.05659058,.0001781,97.2832,246.5633,109.3621,250.7799,0,U,64152,999,6272,.12089E-3,.1689E-4,0
STARLINK-34345,2025-112H,2026-07-17T02:42:55.487808,15.05659518,.0001435,97.2821,246.9505,126.8665,233.2695,0,U,64153,999,6278,.13574E-3,.1903E-4,0
STARLINK-33945,2025-112J,2026-07-17T02:31:48.120384,15.05664014,.000093,97.2827,255.4428,121.3615,238.7703,0,U,64154,999,6333,.20448E-3,.2896E-4,0
STARLINK-34346,2025-112K,2026-07-17T02:22:59.864736,15.05661610,.0001403,97.2814,246.9740,120.6816,239.4550,0,U,64155,999,6278,.24475E-3,.3478E-4,0
STARLINK-34277,2025-112L,2026-07-17T01:35:07.991808,15.05657213,.0002227,97.2840,246.8692,105.2660,254.8814,0,U,64156,999,6277,.53215E-4,.712E-5,0
STARLINK-34166,2025-112N,2026-07-17T01:59:04.540416,15.05653437,.000212,97.2822,246.8427,120.4931,239.6506,0,U,64158,999,6277,.29489E-3,.4201E-4,0
STARLINK-34344,2025-112P,2026-07-17T01:47:05.682912,15.05659782,.0001953,97.2831,246.8557,119.0391,241.1032,0,U,64159,999,6277,.17652E-3,.2492E-4,0
STARLINK-34339,2025-112Q,2026-07-16T17:24:41.094432,15.05651061,.0002126,97.2838,246.5678,110.1793,249.9664,0,U,64160,999,6272,.34612E-4,.443E-5,0
STARLINK-34341,2025-112R,2026-07-16T17:00:45.142848,15.05657749,.0001888,97.2816,246.5894,112.5488,247.5940,0,U,64161,999,6272,.66789E-4,.908E-5,0
STARLINK-34317,2025-112S,2026-07-17T02:11:01.709664,15.05660342,.0001041,97.2823,246.9864,133.6449,226.4865,0,U,64162,999,6278,.2238E-3,.3175E-4,0
STARLINK-34340,2025-112T,2026-07-17T01:39:07.193664,15.05659694,.0001985,97.2837,246.8646,135.9824,224.1562,0,U,64163,999,6277,.16111E-3,.227E-4,0
STARLINK-34263,2025-112U,2026-07-17T03:02:51.711360,15.05661900,.0002536,97.2839,246.9404,99.2561,260.8954,0,U,64164,999,6278,.1973E-3,.2792E-4,0
STARLINK-33793,2025-112V,2026-07-17T02:50:54.187008,15.05657683,.0001669,97.2829,246.9509,105.0388,255.1025,0,U,64165,999,6278,.41667E-4,.545E-5,0
STARLINK-34313,2025-112W,2026-07-17T02:38:56.510592,15.05658179,.0001559,97.2828,246.9652,120.3579,239.7803,0,U,64166,999,6278,.12417E-3,.1736E-4,0
STARLINK-34309,2025-112X,2026-07-16T16:52:46.567200,15.05660505,.0001034,97.2819,246.5976,118.7594,241.3737,0,U,64167,999,6272,.13703E-3,.1922E-4,0
